*******************************************************************************
 Revised: Mar 12, 2021             Io  / (Jupiter)                          501

 SATELLITE PHYSICAL PROPERTIES:
  Mean radius (km)       = 1821.6   +- 0.5   Density (g cm^-3) = 3.528 +- 0.006
  GM (km^3/s^2)          = 5959.9155+- 0.004 Geometric Albedo  = 0.63  +- 0.02

 SATELLITE ORBIT (at J2000.0 epoch, 2000-Jan-1.5):
  Semi-major axis, a (km)~ 422,000           Orbital period    ~ 1.77 d
  Eccentricity, e        ~ 0.00472           Rotational period = Synchronous
  Inclination, i  (deg)  ~ 0.0375
*******************************************************************************
 
 
*******************************************************************************
Ephemeris / WWW_USER Thu Apr  8 14:44:09 2021 Pasadena, USA      / Horizons
*******************************************************************************
Target body name: Io (501)                        {source: jup365_merged}
Center body name: Jupiter (599)                   {source: jup365_merged}
Center-site name: BODY CENTER
*******************************************************************************
Start time      : A.D. 1986-Apr-24 12:00:00.0000 TDB
Stop  time      : A.D. 2013-Sep-09 12:00:00.0000 TDB
Step-size       : 144000 minutes
*******************************************************************************
Center geodetic : 0.00000000,0.00000000,0.0000000 {W-lon(deg),Lat(deg),Alt(km)}
Center cylindric: 0.00000000,0.00000000,0.0000000 {W-lon(deg),Dxy(km),Dz(km)}
Center radii    : 71492.0 x 71492.0 x 66854.0 km  {Equator, meridian, pole}    
Output units    : AU-D
Output type     : LT CORRECTED cartesian states
Output format   : 2 (position and velocity)
Reference frame : ICRF
*******************************************************************************
JDTDB
   X     Y     Z
   VX    VY    VZ
*******************************************************************************
$$SOE
2446545.000000000 = A.D. 1986-Apr-24 12:00:00.0000 TDB 
 X = 1.134323306810027E-03 Y =-2.347349015364003E-03 Z =-1.099337196858623E-03
 VX= 9.148038778472862E-03 VY= 3.535900042349451E-03 VZ= 1.834440550885052E-03
2446645.000000000 = A.D. 1986-Aug-02 12:00:00.0000 TDB 
 X =-1.518169847405568E-03 Y = 2.146486266775055E-03 Z = 9.974718728975932E-04
 VX=-8.466433067290722E-03 VY=-4.815455657603314E-03 VZ=-2.431019858498243E-03
2446745.000000000 = A.D. 1986-Nov-10 12:00:00.0000 TDB 
 X = 1.839204903467327E-03 Y =-1.931066081897781E-03 Z =-8.899282841806084E-04
 VX= 7.573501953831057E-03 VY= 5.905035176279602E-03 VZ= 2.934241177661123E-03
2446845.000000000 = A.D. 1987-Feb-18 12:00:00.0000 TDB 
 X =-2.160095505220378E-03 Y = 1.661866117386934E-03 Z = 7.568901325381410E-04
 VX=-6.422462837592389E-03 VY=-6.856251949182122E-03 VZ=-3.367818647014497E-03
2446945.000000000 = A.D. 1987-May-29 12:00:00.0000 TDB 
 X = 2.431147921667973E-03 Y =-1.313971437539385E-03 Z =-5.873327644928898E-04
 VX= 5.119038393422605E-03 VY= 7.715753126836166E-03 VZ= 3.756071035342003E-03
2447045.000000000 = A.D. 1987-Sep-06 12:00:00.0000 TDB 
 X =-2.604874072734571E-03 Y = 9.632846132281833E-04 Z = 4.179257899807345E-04
 VX=-3.770436894978533E-03 VY=-8.388290159102670E-03 VZ=-4.055510012160796E-03
2447145.000000000 = A.D. 1987-Dec-15 12:00:00.0000 TDB 
 X = 2.736163642326113E-03 Y =-6.176861391238056E-04 Z =-2.515639079650523E-04
 VX= 2.330503922609540E-03 VY= 8.787117456273452E-03 VZ= 4.223628907052413E-03
2447245.000000000 = A.D. 1988-Mar-24 12:00:00.0000 TDB 
 X =-2.822189224788160E-03 Y = 2.127382444876249E-04 Z = 5.746168856439084E-05
 VX=-7.576353336467847E-04 VY=-8.971019760183498E-03 VZ=-4.288132106027314E-03
2447345.000000000 = A.D. 1988-Jul-02 12:00:00.0000 TDB 
 X = 2.808686357692340E-03 Y = 2.058946986228723E-04 Z = 1.418621367973555E-04
 VX=-8.353554248762213E-04 VY= 9.010370932515077E-03 VZ= 4.283447034589626E-03
2447445.000000000 = A.D. 1988-Oct-10 12:00:00.0000 TDB 
 X =-2.730882208656834E-03 Y =-5.707372543125339E-04 Z =-3.147147184189541E-04
 VX= 2.333918180657782E-03 VY=-8.841236181940142E-03 VZ=-4.181052592186282E-03
2447545.000000000 = A.D. 1989-Jan-18 12:00:00.0000 TDB 
 X = 2.618239136889897E-03 Y = 9.341153911633899E-04 Z = 4.866137776903434E-04
 VX=-3.768095588037258E-03 VY= 8.385787005949431E-03 VZ= 3.942670988325962E-03
2447645.000000000 = A.D. 1989-Apr-28 12:00:00.0000 TDB 
 X =-2.415034872323804E-03 Y =-1.316607372522937E-03 Z =-6.663172658713961E-04
 VX= 5.186353634028388E-03 VY=-7.720171978158616E-03 VZ=-3.603611165494077E-03
2447745.000000000 = A.D. 1989-Aug-06 12:00:00.0000 TDB 
 X = 2.137381331650435E-03 Y = 1.638543890365235E-03 Z = 8.161000192011974E-04
 VX=-6.495813267219278E-03 VY= 6.938141108046574E-03 VZ= 3.210058288982911E-03
2447845.000000000 = A.D. 1989-Nov-14 12:00:00.0000 TDB 
 X =-1.851898797853955E-03 Y =-1.895044013548325E-03 Z =-9.344941929809573E-04
 VX= 7.570131133737335E-03 VY=-6.007481806148609E-03 VZ=-2.748152354109875E-03
2447945.000000000 = A.D. 1990-Feb-22 12:00:00.0000 TDB 
 X = 1.515627513659773E-03 Y = 2.144048683004960E-03 Z = 1.048396418053760E-03
 VX=-8.444505764661322E-03 VY= 4.859899635102159E-03 VZ= 2.185339405083882E-03
2448045.000000000 = A.D. 1990-Jun-02 12:00:00.0000 TDB 
 X =-1.095385983790816E-03 Y =-2.344546796969327E-03 Z =-1.137665902552684E-03
 VX= 9.192455036979264E-03 VY=-3.576190405715918E-03 VZ=-1.558651336588407E-03
2448145.000000000 = A.D. 1990-Sep-10 12:00:00.0000 TDB 
 X = 6.795119871298984E-04 Y = 2.455952127645579E-03 Z = 1.184138096734702E-03
 VX=-9.741857019667864E-03 VY= 2.275279331364203E-03 VZ= 9.267725649667511E-04
2448245.000000000 = A.D. 1990-Dec-19 12:00:00.0000 TDB 
 X =-2.841646002397683E-04 Y =-2.524336909277296E-03 Z =-1.210256614082122E-03
 VX= 9.983467500588109E-03 VY=-9.455523178784411E-04 VZ=-2.860728308257999E-04
2448345.000000000 = A.D. 1991-Mar-29 12:00:00.0000 TDB 
 X =-1.657424804388850E-04 Y = 2.550981902675592E-03 Z = 1.215202099864530E-03
 VX=-9.954512105793371E-03 VY=-4.752303857977817E-04 VZ=-3.933872144803136E-04
2448445.000000000 = A.D. 1991-Jul-07 12:00:00.0000 TDB 
 X = 6.290427303314842E-04 Y =-2.486567818115854E-03 Z =-1.176340188110176E-03
 VX= 9.760049831654682E-03 VY= 1.913050308523837E-03 VZ= 1.077444161915024E-03
2448545.000000000 = A.D. 1991-Oct-15 12:00:00.0000 TDB 
 X =-1.022903855324701E-03 Y = 2.366681940718628E-03 Z = 1.111993189483183E-03
 VX=-9.363295647504502E-03 VY=-3.241532370025931E-03 VZ=-1.705348805301890E-03
2448645.000000000 = A.D. 1992-Jan-23 12:00:00.0000 TDB 
 X = 1.399016854133838E-03 Y =-2.218683368652026E-03 Z =-1.034536014459090E-03
 VX= 8.670736304597094E-03 VY= 4.459017380315088E-03 VZ= 2.274140974780886E-03
2448745.000000000 = A.D. 1992-May-02 12:00:00.0000 TDB 
 X =-1.787792877045280E-03 Y = 1.993039470823381E-03 Z = 9.199049941436347E-04
 VX=-7.733807427434502E-03 VY=-5.629798478692064E-03 VZ=-2.815879851507745E-03
2448845.000000000 = A.D. 1992-Aug-10 12:00:00.0000 TDB 
 X = 2.107565379122917E-03 Y =-1.699568953256279E-03 Z =-7.742332839435786E-04
 VX= 6.677197803673046E-03 VY= 6.705062295829982E-03 VZ= 3.309159001231100E-03
2448945.000000000 = A.D. 1992-Nov-18 12:00:00.0000 TDB 
 X =-2.347561954945212E-03 Y = 1.407237726071386E-03 Z = 6.307263928716736E-04
 VX=-5.501661846088566E-03 VY=-7.557157635734145E-03 VZ=-3.693642933826077E-03
2449045.000000000 = A.D. 1993-Feb-26 12:00:00.0000 TDB 
 X = 2.568381806776965E-03 Y =-1.078608236524883E-03 Z =-4.704449888160222E-04
 VX= 4.127437634855907E-03 VY= 8.188444666737790E-03 VZ= 3.969509493670383E-03
2449145.000000000 = A.D. 1993-Jun-06 12:00:00.0000 TDB 
 X =-2.731581904024191E-03 Y = 6.800267293601320E-04 Z = 2.781037223919535E-04
 VX=-2.611245397441929E-03 VY=-8.679873613704935E-03 VZ=-4.176418424010611E-03
2449245.000000000 = A.D. 1993-Sep-14 12:00:00.0000 TDB 
 X = 2.795070075187772E-03 Y =-2.866173891249364E-04 Z =-9.008465521666790E-05
 VX= 1.093178843019110E-03 VY= 9.006011579364452E-03 VZ= 4.305358231750626E-03
2449345.000000000 = A.D. 1993-Dec-23 12:00:00.0000 TDB 
 X =-2.809943345240182E-03 Y =-7.495015523961666E-05 Z =-8.185279866190602E-05
 VX= 4.007141369272123E-04 VY=-9.059797886199483E-03 VZ=-4.305501051679900E-03
2449445.000000000 = A.D. 1994-Apr-02 12:00:00.0000 TDB 
 X = 2.775642245494400E-03 Y = 4.764315926246491E-04 Z = 2.718862212201801E-04
 VX=-1.948850192531091E-03 VY= 8.847712490500481E-03 VZ= 4.179303995228222E-03
2449545.000000000 = A.D. 1994-Jul-11 12:00:00.0000 TDB 
 X =-2.641595712052906E-03 Y =-8.847122999738160E-04 Z =-4.636498794998590E-04
 VX= 3.497815845691948E-03 VY=-8.477019786993955E-03 VZ=-3.978318106812862E-03
2449645.000000000 = A.D. 1994-Oct-19 12:00:00.0000 TDB 
 X = 2.448483699045737E-03 Y = 1.225950699320654E-03 Z = 6.226094281683930E-04
 VX=-4.908900647530317E-03 VY= 7.951224847993066E-03 VZ= 3.706504752056889E-03
2449745.000000000 = A.D. 1995-Jan-27 12:00:00.0000 TDB 
 X =-2.232271427398177E-03 Y =-1.538098352592161E-03 Z =-7.676185268035971E-04
 VX= 6.144670945406027E-03 VY=-7.183255248837443E-03 VZ=-3.322786034814969E-03
2449845.000000000 = A.D. 1995-May-07 12:00:00.0000 TDB 
 X = 1.932659739831653E-03 Y = 1.855761644575911E-03 Z = 9.141184758203665E-04
 VX=-7.285716876939355E-03 VY= 6.190121198233627E-03 VZ= 2.833327645472142E-03
2449945.000000000 = A.D. 1995-Aug-15 12:00:00.0000 TDB 
 X =-1.562314012541393E-03 Y =-2.108094150694090E-03 Z =-1.028648712848118E-03
 VX= 8.312826393872525E-03 VY=-5.094548815280736E-03 VZ=-2.297012990680684E-03
2450045.000000000 = A.D. 1995-Nov-23 12:00:00.0000 TDB 
 X = 1.201666900526566E-03 Y = 2.283714748367587E-03 Z = 1.107012620709547E-03
 VX=-9.088706764028150E-03 VY= 3.932563376254975E-03 VZ= 1.732254549236740E-03
2450145.000000000 = A.D. 1996-Mar-02 12:00:00.0000 TDB 
 X =-8.161520921864709E-04 Y =-2.434575023277848E-03 Z =-1.173255131018697E-03
 VX= 9.583131912508553E-03 VY=-2.633536925575277E-03 VZ=-1.106153140437145E-03
